start=new Date('2022-04-29T00:00:00.000Z').valueOf();
sats=[{"SITE":"AFETR","DECAY_DATE":null,"EPOCH":"2022-04-28T13:34:32.394144","RCS_SIZE":"LARGE","MEAN_MOTION":"15.06415629","APOAPSIS":"548.472","OBJECT_ID":"2021-040BL","TLE_LINE2":"2 48486  53.0562  56.4085 0001887  44.8995 315.2146 15.06415629 53654","OBJECT_NAME":"STARLINK-2496","MEAN_ELEMENT_THEORY":"SGP4","LAUNCH_DATE":"2021-05-09","REV_AT_EPOCH":"5365","RA_OF_ASC_NODE":"56.4085","INCLINATION":"53.0562","MEAN_MOTION_DOT":"0.00004757","NORAD_CAT_ID":"48486","SEMIMAJOR_AXIS":"6925.301","PERIOD":"95.591","BSTAR":"0.00033788000000","MEAN_MOTION_DDOT":"0.0000000000000","REF_FRAME":"TEME","CENTER_NAME":"EARTH","CLASSIFICATION_TYPE":"U","ELEMENT_SET_NO":"999","ECCENTRICITY":"0.00018870","GP_ID":"202217149","ARG_OF_PERICENTER":"44.8995","PERIAPSIS":"545.859","TIME_SYSTEM":"UTC","FILE":"3420061","MEAN_ANOMALY":"315.2146","OBJECT_TYPE":"PAYLOAD","COUNTRY_CODE":"US","EPHEMERIS_TYPE":"0","TLE_LINE1":"1 48486U 21040BL  22118.56565271  .00004757  00000-0  33788-3 0  9993"},{"TLE_LINE1":"1 48487U 21040BM  22118.10490963  .00001796  00000-0  13940-3 0  9997","EPHEMERIS_TYPE":"0","MEAN_ANOMALY":"313.1572","OBJECT_TYPE":"PAYLOAD","COUNTRY_CODE":"US","FILE":"3420061","PERIAPSIS":"546.031","TIME_SYSTEM":"UTC","GP_ID":"202217396","ECCENTRICITY":"0.00016750","ELEMENT_SET_NO":"999","ARG_OF_PERICENTER":"46.9557","MEAN_MOTION_DDOT":"0.0000000000000","BSTAR":"0.00013940000000","CLASSIFICATION_TYPE":"U","REF_FRAME":"TEME","CENTER_NAME":"EARTH","NORAD_CAT_ID":"48487","MEAN_MOTION_DOT":"0.00001796","PERIOD":"95.592","SEMIMAJOR_AXIS":"6925.326","RA_OF_ASC_NODE":"58.4736","INCLINATION":"53.0547","REV_AT_EPOCH":"5359","LAUNCH_DATE":"2021-05-09","MEAN_ELEMENT_THEORY":"SGP4","TLE_LINE2":"2 48487  53.0547  58.4736 0001675  46.9557 313.1572 15.06407518 53596","OBJECT_NAME":"STARLINK-2494","APOAPSIS":"548.351","MEAN_MOTION":"15.06407518","OBJECT_ID":"2021-040BM","EPOCH":"2022-04-28T02:31:04.192032","SITE":"AFETR","DECAY_DATE":null,"RCS_SIZE":"LARGE"},{"CLASSIFICATION_TYPE":"U","REF_FRAME":"TEME","CENTER_NAME":"EARTH","MEAN_MOTION_DDOT":"0.0000000000000","BSTAR":"0.00007986400000","ARG_OF_PERICENTER":"89.8916","GP_ID":"202221632","ECCENTRICITY":"0.00015780","ELEMENT_SET_NO":"999","RA_OF_ASC_NODE":"345.6055","REV_AT_EPOCH":"5299","INCLINATION":"53.0549","PERIOD":"95.592","SEMIMAJOR_AXIS":"6925.355","NORAD_CAT_ID":"48553","MEAN_MOTION_DOT":"0.00000908","OBJECT_NAME":"STARLINK-2063","TLE_LINE2":"2 48553  53.0549 345.6055 0001578  89.8916 270.2254 15.06397801 52990","LAUNCH_DATE":"2021-05-15","MEAN_ELEMENT_THEORY":"SGP4","RCS_SIZE":"LARGE","EPOCH":"2022-04-28T17:53:18.393792","DECAY_DATE":null,"SITE":"AFETR","MEAN_MOTION":"15.06397801","APOAPSIS":"548.313","OBJECT_ID":"2021-041A","TLE_LINE1":"1 48553U 21041A   22118.74535178  .00000908  00000-0  79864-4 0  9992","EPHEMERIS_TYPE":"0","FILE":"3420113","PERIAPSIS":"546.127","TIME_SYSTEM":"UTC","COUNTRY_CODE":"US","MEAN_ANOMALY":"270.2254","OBJECT_TYPE":"PAYLOAD"},{"EPHEMERIS_TYPE":"0","TLE_LINE1":"1 48554U 21041B   22118.35463798  .00005000  00000-0  35422-3 0  9997","COUNTRY_CODE":"US","OBJECT_TYPE":"PAYLOAD","MEAN_ANOMALY":"262.2377","TIME_SYSTEM":"UTC","PERIAPSIS":"546.293","FILE":"3420061","SEMIMAJOR_AXIS":"6925.316","PERIOD":"95.591","MEAN_MOTION_DOT":"0.00005000","NORAD_CAT_ID":"48554","INCLINATION":"53.0558","RA_OF_ASC_NODE":"347.3551","REV_AT_EPOCH":"5248","ARG_OF_PERICENTER":"97.8758","ECCENTRICITY":"0.00012830","ELEMENT_SET_NO":"999","GP_ID":"202216406","REF_FRAME":"TEME","CENTER_NAME":"EARTH","CLASSIFICATION_TYPE":"U","BSTAR":"0.00035422000000","MEAN_MOTION_DDOT":"0.0000000000000","OBJECT_ID":"2021-041B","APOAPSIS":"548.070","MEAN_MOTION":"15.06410517","RCS_SIZE":"LARGE","DECAY_DATE":null,"SITE":"AFETR","EPOCH":"2022-04-28T08:30:40.721472","MEAN_ELEMENT_THEORY":"SGP4","LAUNCH_DATE":"2021-05-15","OBJECT_NAME":"STARLINK-2139","TLE_LINE2":"2 48554  53.0558 347.3551 0001283  97.8758 262.2377 15.06410517 52488"},{"INCLINATION":"53.0556","RA_OF_ASC_NODE":"357.2261","REV_AT_EPOCH":"5234","SEMIMAJOR_AXIS":"6925.329","PERIOD":"95.592","MEAN_MOTION_DOT":"0.00003158","NORAD_CAT_ID":"48555","CENTER_NAME":"EARTH","REF_FRAME":"TEME","CLASSIFICATION_TYPE":"U","BSTAR":"0.00023077000000","MEAN_MOTION_DDOT":"0.0000000000000","ARG_OF_PERICENTER":"69.0817","ECCENTRICITY":"0.00015840","ELEMENT_SET_NO":"999","GP_ID":"202217157","RCS_SIZE":"LARGE","DECAY_DATE":null,"SITE":"AFETR","EPOCH":"2022-04-28T09:11:49.023456","APOAPSIS":"548.291","MEAN_MOTION":"15.06406392","OBJECT_ID":"2021-041C","OBJECT_NAME":"STARLINK-2145","TLE_LINE2":"2 48555  53.0556 357.2261 0001584  69.0817 291.0342 15.06406392 52349","MEAN_ELEMENT_THEORY":"SGP4","LAUNCH_DATE":"2021-05-15","EPHEMERIS_TYPE":"0","TLE_LINE1":"1 48555U 21041C   22118.38320629  .00003158  00000-0  23077-3 0  9991","TIME_SYSTEM":"UTC","PERIAPSIS":"546.097","FILE":"3420061","COUNTRY_CODE":"US","MEAN_ANOMALY":"291.0342","OBJECT_TYPE":"PAYLOAD"},{"TLE_LINE1":"1 48556U 21041D   22118.37214608  .00006173  00000-0  43277-3 0  9994","EPHEMERIS_TYPE":"0","PERIAPSIS":"546.193","TIME_SYSTEM":"UTC","FILE":"3420061","OBJECT_TYPE":"PAYLOAD","MEAN_ANOMALY":"287.0873","COUNTRY_CODE":"US","BSTAR":"0.00043277000000","MEAN_MOTION_DDOT":"0.0000000000000","CENTER_NAME":"EARTH","REF_FRAME":"TEME","CLASSIFICATION_TYPE":"U","ECCENTRICITY":"0.00014180","ELEMENT_SET_NO":"999","GP_ID":"202217404","ARG_OF_PERICENTER":"73.0271","RA_OF_ASC_NODE":"357.2783","REV_AT_EPOCH":"5234","INCLINATION":"53.0558","MEAN_MOTION_DOT":"0.00006173","NORAD_CAT_ID":"48556","SEMIMAJOR_AXIS":"6925.310","PERIOD":"95.591","TLE_LINE2":"2 48556  53.0558 357.2783 0001418  73.0271 287.0873 15.06412691 52349","OBJECT_NAME":"STARLINK-2151","MEAN_ELEMENT_THEORY":"SGP4","LAUNCH_DATE":"2021-05-15","DECAY_DATE":null,"SITE":"AFETR","EPOCH":"2022-04-28T08:55:53.421312","RCS_SIZE":"LARGE","APOAPSIS":"548.157","OBJECT_ID":"2021-041D","MEAN_MOTION":"15.06412691"},{"MEAN_MOTION_DOT":"0.00008143","NORAD_CAT_ID":"48557","SEMIMAJOR_AXIS":"6925.312","PERIOD":"95.591","INCLINATION":"53.0538","REV_AT_EPOCH":"5299","RA_OF_ASC_NODE":"345.4739","ECCENTRICITY":"0.00014320","ELEMENT_SET_NO":"999","GP_ID":"202226494","ARG_OF_PERICENTER":"80.3980","BSTAR":"0.00056474000000","MEAN_MOTION_DDOT":"0.0000000000000","REF_FRAME":"TEME","CENTER_NAME":"EARTH","CLASSIFICATION_TYPE":"U","OBJECT_ID":"2021-041E","APOAPSIS":"548.168","MEAN_MOTION":"15.06412038","SITE":"AFETR","DECAY_DATE":null,"EPOCH":"2022-04-28T18:35:45.861504","RCS_SIZE":"LARGE","MEAN_ELEMENT_THEORY":"SGP4","LAUNCH_DATE":"2021-05-15","TLE_LINE2":"2 48557  53.0538 345.4739 0001432  80.3980 279.7170 15.06412038 52996","OBJECT_NAME":"STARLINK-2155","EPHEMERIS_TYPE":"0","TLE_LINE1":"1 48557U 21041E   22118.77483636  .00008143  00000-0  56474-3 0  9990","OBJECT_TYPE":"PAYLOAD","MEAN_ANOMALY":"279.7170","COUNTRY_CODE":"US","PERIAPSIS":"546.185","TIME_SYSTEM":"UTC","FILE":"3420301"},{"CLASSIFICATION_TYPE":"U","CENTER_NAME":"EARTH","REF_FRAME":"TEME","MEAN_MOTION_DDOT":"0.0000000000000","BSTAR":"0.00031197000000","ARG_OF_PERICENTER":"86.4027","GP_ID":"202216907","ELEMENT_SET_NO":"999","ECCENTRICITY":"0.00013590","RA_OF_ASC_NODE":"347.2684","INCLINATION":"53.0555","REV_AT_EPOCH":"5162","PERIOD":"95.592","SEMIMAJOR_AXIS":"6925.318","NORAD_CAT_ID":"48558","MEAN_MOTION_DOT":"0.00004370","OBJECT_NAME":"STARLINK-2166","TLE_LINE2":"2 48558  53.0555 347.2684 0001359  86.4027 273.7117 15.06409892 51620","LAUNCH_DATE":"2021-05-15","MEAN_ELEMENT_THEORY":"SGP4","RCS_SIZE":"LARGE","EPOCH":"2022-04-28T08:57:12.771072","SITE":"AFETR","DECAY_DATE":null,"APOAPSIS":"548.124","OBJECT_ID":"2021-041F","MEAN_MOTION":"15.06409892","TLE_LINE1":"1 48558U 21041F   22118.37306448  .00004370  00000-0  31197-3 0  9995","EPHEMERIS_TYPE":"0","FILE":"3420061","TIME_SYSTEM":"UTC","PERIAPSIS":"546.242","COUNTRY_CODE":"US","OBJECT_TYPE":"PAYLOAD","MEAN_ANOMALY":"273.7117"},{"FILE":"3420307","TIME_SYSTEM":"UTC","PERIAPSIS":"546.132","COUNTRY_CODE":"US","MEAN_ANOMALY":"292.5168","OBJECT_TYPE":"PAYLOAD","TLE_LINE1":"1 48559U 21041G   22118.74071270  .00004835  00000-0  34320-3 0  9996","EPHEMERIS_TYPE":"0","OBJECT_NAME":"STARLINK-2167","TLE_LINE2":"2 48559  53.0550 345.6067 0001518  67.5981 292.5168 15.06409873 52983","LAUNCH_DATE":"2021-05-15","MEAN_ELEMENT_THEORY":"SGP4","RCS_SIZE":"LARGE","EPOCH":"2022-04-28T17:46:37.577280","DECAY_DATE":null,"SITE":"AFETR","MEAN_MOTION":"15.06409873","APOAPSIS":"548.235","OBJECT_ID":"2021-041G","CLASSIFICATION_TYPE":"U","CENTER_NAME":"EARTH","REF_FRAME":"TEME","MEAN_MOTION_DDOT":"0.0000000000000","BSTAR":"0.00034320000000","ARG_OF_PERICENTER":"67.5981","GP_ID":"202226298","ELEMENT_SET_NO":"999","ECCENTRICITY":"0.00015180","RA_OF_ASC_NODE":"345.6067","INCLINATION":"53.0550","REV_AT_EPOCH":"5298","PERIOD":"95.592","SEMIMAJOR_AXIS":"6925.318","NORAD_CAT_ID":"48559","MEAN_MOTION_DOT":"0.00004835"},{"MEAN_ANOMALY":"194.1661","OBJECT_TYPE":"PAYLOAD","COUNTRY_CODE":"US","PERIAPSIS":"546.211","TIME_SYSTEM":"UTC","FILE":"3420061","EPHEMERIS_TYPE":"0","TLE_LINE1":"1 48561U 21041J   22118.58334491 -.00012479  00000-0 -81986-3 0  9993","MEAN_MOTION":"15.06421492","APOAPSIS":"548.084","OBJECT_ID":"2021-041J","DECAY_DATE":null,"SITE":"AFETR","EPOCH":"2022-04-28T14:00:01.000224","RCS_SIZE":"LARGE","MEAN_ELEMENT_THEORY":"SGP4","LAUNCH_DATE":"2021-05-15","TLE_LINE2":"2 48561  53.0527 316.3239 0001352  97.0481 194.1661 15.06421492  3594","OBJECT_NAME":"STARLINK-2186","MEAN_MOTION_DOT":"-0.00012479","NORAD_CAT_ID":"48561","SEMIMAJOR_AXIS":"6925.283","PERIOD":"95.591","REV_AT_EPOCH":"359","INCLINATION":"53.0527","RA_OF_ASC_NODE":"316.3239","ELEMENT_SET_NO":"999","ECCENTRICITY":"0.00013520","GP_ID":"202217905","ARG_OF_PERICENTER":"97.0481","BSTAR":"-0.00081986000000","MEAN_MOTION_DDOT":"0.0000000000000","CENTER_NAME":"EARTH","REF_FRAME":"TEME","CLASSIFICATION_TYPE":"U"}];
